{
  "type": "FeatureCollection",
  "name": "ORCA_Coastal_Hazard_Zones",
  "crs": { "type": "name", "properties": { "name": "urn:ogc:def:crs:OGC:1.3:CRS84" } },
  "features": [
    {
      "type": "Feature",
      "properties": {
        "id": "HAZ-001",
        "hazard_type": "Rough Sea Swell Alert",
        "severity": "MODERATE",
        "wave_height_max_m": 2.8,
        "valid_until": "2026-09-02T16:00:00Z",
        "advisory": "High swell waves observed along south Karnataka / north Kerala coast."
      },
      "geometry": {
        "type": "Polygon",
        "coordinates": [
          [
            [74.30, 12.50],
            [74.90, 12.50],
            [74.90, 13.30],
            [74.30, 13.30],
            [74.30, 12.50]
          ]
        ]
      }
    },
    {
      "type": "Feature",
      "properties": {
        "id": "HAZ-002",
        "hazard_type": "Strong Surface Currents",
        "severity": "LOW",
        "current_speed_max_ms": 1.1,
        "valid_until": "2026-09-02T20:00:00Z",
        "advisory": "Surface current speed exceeding normal thresholds in offshore Gulf of Mannar."
      },
      "geometry": {
        "type": "Polygon",
        "coordinates": [
          [
            [78.50, 8.50],
            [79.20, 8.50],
            [79.20, 9.10],
            [78.50, 9.10],
            [78.50, 8.50]
          ]
        ]
      }
    }
  ]
}
